[{"OBJECT_NAME":"ONEWEB-0057","OBJECT_ID":"2020-008AF","EPOCH":"2025-10-01T05:15:36.460800","MEAN_MOTION":13.10375492,"ECCENTRICITY":0.00017019,"INCLINATION":87.8742,"RA_OF_ASC_NODE":87.911,"ARG_OF_PERICENTER":82.8287,"MEAN_ANOMALY":277.3034,"EPHEMERIS_TYPE":0,"CLASSIFICATION_TYPE":"U","NORAD_CAT_ID":45160,"ELEMENT_SET_NO":999,"REV_AT_EPOCH":27443,"BSTAR":-0.0010087558,"MEAN_MOTION_DOT":-3.39e-6,"MEAN_MOTION_DDOT":0},{"OBJECT_NAME":"ONEWEB-0058","OBJECT_ID":"2020-008AG","EPOCH":"2025-10-01T04:56:39.816096","MEAN_MOTION":13.10369655,"ECCENTRICITY":0.00015289,"INCLINATION":87.8739,"RA_OF_ASC_NODE":87.9236,"ARG_OF_PERICENTER":100.5453,"MEAN_ANOMALY":259.5847,"EPHEMERIS_TYPE":0,"CLASSIFICATION_TYPE":"U","NORAD_CAT_ID":45161,"ELEMENT_SET_NO":999,"REV_AT_EPOCH":27450,"BSTAR":-0.0021605613,"MEAN_MOTION_DOT":-7.41e-6,"MEAN_MOTION_DDOT":0},{"OBJECT_NAME":"ONEWEB-0059","OBJECT_ID":"2020-008AH","EPOCH":"2025-10-01T04:51:41.830272","MEAN_MOTION":13.1037234,"ECCENTRICITY":0.00015917,"INCLINATION":87.8738,"RA_OF_ASC_NODE":87.9247,"ARG_OF_PERICENTER":93.3137,"MEAN_ANOMALY":266.8172,"EPHEMERIS_TYPE":0,"CLASSIFICATION_TYPE":"U","NORAD_CAT_ID":45162,"ELEMENT_SET_NO":999,"REV_AT_EPOCH":27440,"BSTAR":-0.0019039567,"MEAN_MOTION_DOT":-6.52e-6,"MEAN_MOTION_DDOT":0},{"OBJECT_NAME":"ONEWEB-0062","OBJECT_ID":"2020-008AJ","EPOCH":"2025-10-01T05:28:46.284672","MEAN_MOTION":13.1037673,"ECCENTRICITY":0.00018094,"INCLINATION":87.8741,"RA_OF_ASC_NODE":87.897,"ARG_OF_PERICENTER":100.6288,"MEAN_ANOMALY":259.5043,"EPHEMERIS_TYPE":0,"CLASSIFICATION_TYPE":"U","NORAD_CAT_ID":45163,"ELEMENT_SET_NO":999,"REV_AT_EPOCH":27427,"BSTAR":0.0004173735,"MEAN_MOTION_DOT":1.58e-6,"MEAN_MOTION_DDOT":0},{"OBJECT_NAME":"ONEWEB-0065","OBJECT_ID":"2020-008AK","EPOCH":"2025-09-30T12:30:30.218976","MEAN_MOTION":13.10361307,"ECCENTRICITY":0.0001912,"INCLINATION":87.8741,"RA_OF_ASC_NODE":88.0635,"ARG_OF_PERICENTER":78.5586,"MEAN_ANOMALY":281.5756,"EPHEMERIS_TYPE":0,"CLASSIFICATION_TYPE":"U","NORAD_CAT_ID":45164,"ELEMENT_SET_NO":999,"REV_AT_EPOCH":27387,"BSTAR":-0.0033676168,"MEAN_MOTION_DOT":-1.163e-5,"MEAN_MOTION_DDOT":0},{"OBJECT_NAME":"ONEWEB-0066","OBJECT_ID":"2020-020A","EPOCH":"2025-09-30T17:42:15.647040","MEAN_MOTION":13.11417352,"ECCENTRICITY":0.00014532,"INCLINATION":87.8799,"RA_OF_ASC_NODE":72.738,"ARG_OF_PERICENTER":85.5873,"MEAN_ANOMALY":274.5421,"EPHEMERIS_TYPE":0,"CLASSIFICATION_TYPE":"U","NORAD_CAT_ID":45424,"ELEMENT_SET_NO":999,"REV_AT_EPOCH":26867,"BSTAR":0.0016328389,"MEAN_MOTION_DOT":5.91e-6,"MEAN_MOTION_DDOT":0},{"OBJECT_NAME":"ONEWEB-0067","OBJECT_ID":"2020-020B","EPOCH":"2025-09-30T16:46:17.392224","MEAN_MOTION":13.11416224,"ECCENTRICITY":0.00015942,"INCLINATION":87.8791,"RA_OF_ASC_NODE":72.6498,"ARG_OF_PERICENTER":86.9042,"MEAN_ANOMALY":273.2268,"EPHEMERIS_TYPE":0,"CLASSIFICATION_TYPE":"U","NORAD_CAT_ID":45425,"ELEMENT_SET_NO":999,"REV_AT_EPOCH":26872,"BSTAR":-0.0018371194,"MEAN_MOTION_DOT":-6.38e-6,"MEAN_MOTION_DDOT":0},{"OBJECT_NAME":"ONEWEB-0080","OBJECT_ID":"2020-020C","EPOCH":"2025-10-01T03:58:43.112928","MEAN_MOTION":13.11416456,"ECCENTRICITY":0.00014017,"INCLINATION":87.8797,"RA_OF_ASC_NODE":72.6539,"ARG_OF_PERICENTER":102.5119,"MEAN_ANOMALY":257.6166,"EPHEMERIS_TYPE":0,"CLASSIFICATION_TYPE":"U","NORAD_CAT_ID":45426,"ELEMENT_SET_NO":999,"REV_AT_EPOCH":26875,"BSTAR":-0.0016824547,"MEAN_MOTION_DOT":-5.84e-6,"MEAN_MOTION_DDOT":0},{"OBJECT_NAME":"ONEWEB-0090","OBJECT_ID":"2020-020D","EPOCH":"2025-10-01T04:26:48.805440","MEAN_MOTION":13.11417524,"ECCENTRICITY":0.00016748,"INCLINATION":87.8801,"RA_OF_ASC_NODE":72.6507,"ARG_OF_PERICENTER":93.9573,"MEAN_ANOMALY":266.1747,"EPHEMERIS_TYPE":0,"CLASSIFICATION_TYPE":"U","NORAD_CAT_ID":45427,"ELEMENT_SET_NO":999,"REV_AT_EPOCH":26872,"BSTAR":6.0190115e-5,"MEAN_MOTION_DOT":3.4e-7,"MEAN_MOTION_DDOT":0},{"OBJECT_NAME":"ONEWEB-0061","OBJECT_ID":"2020-020E","EPOCH":"2025-09-30T20:03:41.078304","MEAN_MOTION":13.11415781,"ECCENTRICITY":0.00015858,"INCLINATION":87.879,"RA_OF_ASC_NODE":72.7003,"ARG_OF_PERICENTER":93.0174,"MEAN_ANOMALY":267.1135,"EPHEMERIS_TYPE":0,"CLASSIFICATION_TYPE":"U","NORAD_CAT_ID":45428,"ELEMENT_SET_NO":999,"REV_AT_EPOCH":26863,"BSTAR":0.00081173235,"MEAN_MOTION_DOT":3.0e-6,"MEAN_MOTION_DDOT":0},{"OBJECT_NAME":"ONEWEB-0081","OBJECT_ID":"2020-020F","EPOCH":"2025-09-30T23:16:44.791104","MEAN_MOTION":13.11417037,"ECCENTRICITY":0.00014906,"INCLINATION":87.8793,"RA_OF_ASC_NODE":72.6923,"ARG_OF_PERICENTER":86.7215,"MEAN_ANOMALY":273.4084,"EPHEMERIS_TYPE":0,"CLASSIFICATION_TYPE":"U","NORAD_CAT_ID":45429,"ELEMENT_SET_NO":999,"REV_AT_EPOCH":26876,"BSTAR":0.0019161807,"MEAN_MOTION_DOT":6.92e-6,"MEAN_MOTION_DDOT":0},{"OBJECT_NAME":"ONEWEB-0069","OBJECT_ID":"2020-020G","EPOCH":"2025-09-30T23:00:52.424640","MEAN_MOTION":13.11418144,"ECCENTRICITY":0.0001624,"INCLINATION":87.8801,"RA_OF_ASC_NODE":72.6903,"ARG_OF_PERICENTER":88.2864,"MEAN_ANOMALY":271.845,"EPHEMERIS_TYPE":0,"CLASSIFICATION_TYPE":"U","NORAD_CAT_ID":45430,"ELEMENT_SET_NO":999,"REV_AT_EPOCH":26869,"BSTAR":0.0010291348,"MEAN_MOTION_DOT":3.77e-6,"MEAN_MOTION_DDOT":0},{"OBJECT_NAME":"ONEWEB-0031","OBJECT_ID":"2020-020H","EPOCH":"2025-10-01T00:10:25.647456","MEAN_MOTION":13.11415259,"ECCENTRICITY":0.00017093,"INCLINATION":87.8795,"RA_OF_ASC_NODE":72.7086,"ARG_OF_PERICENTER":100.0967,"MEAN_ANOMALY":260.0354,"EPHEMERIS_TYPE":0,"CLASSIFICATION_TYPE":"U","NORAD_CAT_ID":45431,"ELEMENT_SET_NO":999,"REV_AT_EPOCH":26868,"BSTAR":-0.0013331567,"MEAN_MOTION_DOT":-4.6e-6,"MEAN_MOTION_DDOT":0},{"OBJECT_NAME":"ONEWEB-0027","OBJECT_ID":"2020-020J","EPOCH":"2025-09-30T19:58:01.820928","MEAN_MOTION":13.17648719,"ECCENTRICITY":0.00019905,"INCLINATION":87.9077,"RA_OF_ASC_NODE":57.4174,"ARG_OF_PERICENTER":103.113,"MEAN_ANOMALY":257.0224,"EPHEMERIS_TYPE":0,"CLASSIFICATION_TYPE":"U","NORAD_CAT_ID":45432,"ELEMENT_SET_NO":999,"REV_AT_EPOCH":27220,"BSTAR":-0.00054906616,"MEAN_MOTION_DOT":-2.0e-6,"MEAN_MOTION_DDOT":0},{"OBJECT_NAME":"ONEWEB-0064","OBJECT_ID":"2020-020K","EPOCH":"2025-09-30T22:18:07.737408","MEAN_MOTION":13.11415698,"ECCENTRICITY":0.00017549,"INCLINATION":87.8789,"RA_OF_ASC_NODE":72.7146,"ARG_OF_PERICENTER":97.8946,"MEAN_ANOMALY":262.2381,"EPHEMERIS_TYPE":0,"CLASSIFICATION_TYPE":"U","NORAD_CAT_ID":45433,"ELEMENT_SET_NO":999,"REV_AT_EPOCH":26870,"BSTAR":-0.0013878066,"MEAN_MOTION_DOT":-4.79e-6,"MEAN_MOTION_DDOT":0},{"OBJECT_NAME":"ONEWEB-0018","OBJECT_ID":"2020-020L","EPOCH":"2025-09-30T21:14:40.403904","MEAN_MOTION":13.11418525,"ECCENTRICITY":0.00016119,"INCLINATION":87.88,"RA_OF_ASC_NODE":72.7086,"ARG_OF_PERICENTER":92.4391,"MEAN_ANOMALY":267.6922,"EPHEMERIS_TYPE":0,"CLASSIFICATION_TYPE":"U","NORAD_CAT_ID":45434,"ELEMENT_SET_NO":999,"REV_AT_EPOCH":26864,"BSTAR":0.0014615174,"MEAN_MOTION_DOT":5.31e-6,"MEAN_MOTION_DDOT":0},{"OBJECT_NAME":"ONEWEB-0083","OBJECT_ID":"2020-020M","EPOCH":"2025-09-30T22:51:06.095232","MEAN_MOTION":13.11421765,"ECCENTRICITY":0.0001609,"INCLINATION":87.88,"RA_OF_ASC_NODE":72.6848,"ARG_OF_PERICENTER":94.1764,"MEAN_ANOMALY":265.9548,"EPHEMERIS_TYPE":0,"CLASSIFICATION_TYPE":"U","NORAD_CAT_ID":45435,"ELEMENT_SET_NO":999,"REV_AT_EPOCH":26869,"BSTAR":0.00024016309,"MEAN_MOTION_DOT":9.8e-7,"MEAN_MOTION_DDOT":0}]
