ONEWEB-0057             
1 45160U 20008AF  25274.21917200 -.00000339  00000+0 -10088-2 0  9993
2 45160  87.8742  87.9110 0001701  82.8287 277.3034 13.10375492274435
ONEWEB-0058             
1 45161U 20008AG  25274.20601639 -.00000741  00000+0 -21606-2 0  9994
2 45161  87.8739  87.9236 0001528 100.5453 259.5847 13.10369655274507
ONEWEB-0059             
1 45162U 20008AH  25274.20256748 -.00000652  00000+0 -19040-2 0  9992
2 45162  87.8738  87.9247 0001591  93.3137 266.8172 13.10372340274403
ONEWEB-0062             
1 45163U 20008AJ  25274.22831348  .00000158  00000+0  41737-3 0  9998
2 45163  87.8741  87.8970 0001809 100.6288 259.5043 13.10376730274279
ONEWEB-0065             
1 45164U 20008AK  25273.52118309 -.00001163  00000+0 -33676-2 0  9997
2 45164  87.8741  88.0635 0001912  78.5586 281.5756 13.10361307273875
ONEWEB-0066             
1 45424U 20020A   25273.73768110  .00000591  00000+0  16328-2 0  9991
2 45424  87.8799  72.7380 0001453  85.5873 274.5421 13.11417352268677
ONEWEB-0067             
1 45425U 20020B   25273.69881241 -.00000638  00000+0 -18371-2 0  9992
2 45425  87.8791  72.6498 0001594  86.9042 273.2268 13.11416224268726
ONEWEB-0080             
1 45426U 20020C   25274.16577677 -.00000584  00000+0 -16825-2 0  9993
2 45426  87.8797  72.6539 0001401 102.5119 257.6166 13.11416456268759
ONEWEB-0090             
1 45427U 20020D   25274.18528710  .00000034  00000+0  60190-4 0  9994
2 45427  87.8801  72.6507 0001674  93.9573 266.1747 13.11417524268724
ONEWEB-0061             
1 45428U 20020E   25273.83589211  .00000300  00000+0  81173-3 0  9998
2 45428  87.8790  72.7003 0001585  93.0174 267.1135 13.11415781268638
ONEWEB-0081             
1 45429U 20020F   25273.96996286  .00000692  00000+0  19162-2 0  9999
2 45429  87.8793  72.6923 0001490  86.7215 273.4084 13.11417037268765
ONEWEB-0069             
1 45430U 20020G   25273.95894010  .00000377  00000+0  10291-2 0  9996
2 45430  87.8801  72.6903 0001624  88.2864 271.8450 13.11418144268692
ONEWEB-0031             
1 45431U 20020H   25274.00724129 -.00000460  00000+0 -13332-2 0  9991
2 45431  87.8795  72.7086 0001709 100.0967 260.0354 13.11415259268685
ONEWEB-0027             
1 45432U 20020J   25273.83196552 -.00000200  00000+0 -54907-3 0  9991
2 45432  87.9077  57.4174 0001990 103.1130 257.0224 13.17648719272206
ONEWEB-0064             
1 45433U 20020K   25273.92925622 -.00000479  00000+0 -13878-2 0  9999
2 45433  87.8789  72.7146 0001754  97.8946 262.2381 13.11415698268701
ONEWEB-0018             
1 45434U 20020L   25273.88518986  .00000531  00000+0  14615-2 0  9993
2 45434  87.8800  72.7086 0001611  92.4391 267.6922 13.11418525268641
ONEWEB-0083             
1 45435U 20020M   25273.95215388  .00000098  00000+0  24016-3 0  9997
2 45435  87.8800  72.6848 0001609  94.1764 265.9548 13.11421765268697
